[
  {
    "id": "1",
    "areaCode": "110000",
    "province": "北京市",
    "city": "北京市",
    "district": null,
    "detail": "北京市"
  },
  {
    "id": "2",
    "areaCode": "110100",
    "province": "北京市",
    "city": "北京市",
    "district": "市辖区",
    "detail": "北京市市辖区"
  },
  {
    "id": "3",
    "areaCode": "110101",
    "province": "北京市",
    "city": "北京市",
    "district": "东城区",
    "detail": "北京市东城区"
  },
  {
    "id": "4",
    "areaCode": "110102",
    "province": "北京市",
    "city": "北京市",
    "district": "西城区",
    "detail": "北京市西城区"
  },
  {
    "id": "5",
    "areaCode": "110103",
    "province": "北京市",
    "city": "北京市",
    "district": "崇文区",
    "detail": "北京市崇文区"
  },
  {
    "id": "6",
    "areaCode": "110104",
    "province": "北京市",
    "city": "北京市",
    "district": "宣武区",
    "detail": "北京市宣武区"
  },
  {
    "id": "7",
    "areaCode": "110105",
    "province": "北京市",
    "city": "北京市",
    "district": "朝阳区",
    "detail": "北京市朝阳区"
  },
  {
    "id": "8",
    "areaCode": "110106",
    "province": "北京市",
    "city": "北京市",
    "district": "丰台区",
    "detail": "北京市丰台区"
  },
  {
    "id": "9",
    "areaCode": "110107",
    "province": "北京市",
    "city": "北京市",
    "district": "石景山区",
    "detail": "北京市石景山区"
  },
  {
    "id": "10",
    "areaCode": "110108",
    "province": "北京市",
    "city": "北京市",
    "district": "海淀区",
    "detail": "北京市海淀区"
  },
  {
    "id": "11",
    "areaCode": "110109",
    "province": "北京市",
    "city": "北京市",
    "district": "门头沟区",
    "detail": "北京市门头沟区"
  },
  {
    "id": "12",
    "areaCode": "110111",
    "province": "北京市",
    "city": "北京市",
    "district": "房山区",
    "detail": "北京市房山区"
  },
  {
    "id": "13",
    "areaCode": "110112",
    "province": "北京市",
    "city": "北京市",
    "district": "通州区",
    "detail": "北京市通州区"
  },
  {
    "id": "14",
    "areaCode": "110113",
    "province": "北京市",
    "city": "北京市",
    "district": "顺义区",
    "detail": "北京市顺义区"
  },
  {
    "id": "15",
    "areaCode": "110114",
    "province": "北京市",
    "city": "北京市",
    "district": "昌平区",
    "detail": "北京市昌平区"
  },
  {
    "id": "16",
    "areaCode": "110115",
    "province": "北京市",
    "city": "北京市",
    "district": "大兴区",
    "detail": "北京市大兴区"
  },
  {
    "id": "17",
    "areaCode": "110116",
    "province": "北京市",
    "city": "北京市",
    "district": "怀柔区",
    "detail": "北京市怀柔区"
  },
  {
    "id": "18",
    "areaCode": "110117",
    "province": "北京市",
    "city": "北京市",
    "district": "平谷区",
    "detail": "北京市平谷区"
  },
  {
    "id": "19",
    "areaCode": "110200",
    "province": "北京市",
    "city": "北京市",
    "district": "县",
    "detail": "北京市县"
  },
  {
    "id": "20",
    "areaCode": "110228",
    "province": "北京市",
    "city": "北京市",
    "district": "密云县",
    "detail": "北京市密云县"
  },
  {
    "id": "21",
    "areaCode": "110229",
    "province": "北京市",
    "city": "北京市",
    "district": "延庆县",
    "detail": "北京市延庆县"
  },
  {
    "id": "22",
    "areaCode": "120000",
    "province": "天津市",
    "city": "天津市",
    "district": null,
    "detail": "天津市"
  },
  {
    "id": "23",
    "areaCode": "120100",
    "province": "天津市",
    "city": "天津市",
    "district": "市辖区",
    "detail": "天津市市辖区"
  },
  {
    "id": "24",
    "areaCode": "120101",
    "province": "天津市",
    "city": "天津市",
    "district": "和平区",
    "detail": "天津市和平区"
  },
  {
    "id": "25",
    "areaCode": "120102",
    "province": "天津市",
    "city": "天津市",
    "district": "河东区",
    "detail": "天津市河东区"
  },
  {
    "id": "26",
    "areaCode": "120103",
    "province": "天津市",
    "city": "天津市",
    "district": "河西区",
    "detail": "天津市河西区"
  },
  {
    "id": "27",
    "areaCode": "120104",
    "province": "天津市",
    "city": "天津市",
    "district": "南开区",
    "detail": "天津市南开区"
  },
  {
    "id": "28",
    "areaCode": "120105",
    "province": "天津市",
    "city": "天津市",
    "district": "河北区",
    "detail": "天津市河北区"
  },
  {
    "id": "29",
    "areaCode": "120106",
    "province": "天津市",
    "city": "天津市",
    "district": "红桥区",
    "detail": "天津市红桥区"
  },
  {
    "id": "30",
    "areaCode": "120107",
    "province": "天津市",
    "city": "天津市",
    "district": "塘沽区",
    "detail": "天津市塘沽区"
  },
  {
    "id": "31",
    "areaCode": "120108",
    "province": "天津市",
    "city": "天津市",
    "district": "汉沽区",
    "detail": "天津市汉沽区"
  },
  {
    "id": "32",
    "areaCode": "120109",
    "province": "天津市",
    "city": "天津市",
    "district": "大港区",
    "detail": "天津市大港区"
  },
  {
    "id": "33",
    "areaCode": "120110",
    "province": "天津市",
    "city": "天津市",
    "district": "东丽区",
    "detail": "天津市东丽区"
  },
  {
    "id": "34",
    "areaCode": "120111",
    "province": "天津市",
    "city": "天津市",
    "district": "西青区",
    "detail": "天津市西青区"
  },
  {
    "id": "35",
    "areaCode": "120112",
    "province": "天津市",
    "city": "天津市",
    "district": "津南区",
    "detail": "天津市津南区"
  },
  {
    "id": "36",
    "areaCode": "120113",
    "province": "天津市",
    "city": "天津市",
    "district": "北辰区",
    "detail": "天津市北辰区"
  },
  {
    "id": "37",
    "areaCode": "120114",
    "province": "天津市",
    "city": "天津市",
    "district": "武清区",
    "detail": "天津市武清区"
  },
  {
    "id": "38",
    "areaCode": "120115",
    "province": "天津市",
    "city": "天津市",
    "district": "宝坻区",
    "detail": "天津市宝坻区"
  },
  {
    "id": "39",
    "areaCode": "120200",
    "province": "天津市",
    "city": "天津市",
    "district": "县",
    "detail": "天津市县"
  },
  {
    "id": "40",
    "areaCode": "120221",
    "province": "天津市",
    "city": "天津市",
    "district": "宁河县",
    "detail": "天津市宁河县"
  },
  {
    "id": "41",
    "areaCode": "120222",
    "province": "天津市",
    "city": "天津市",
    "district": "武清县",
    "detail": "天津市武清县"
  },
  {
    "id": "42",
    "areaCode": "120223",
    "province": "天津市",
    "city": "天津市",
    "district": "静海县",
    "detail": "天津市静海县"
  },
  {
    "id": "43",
    "areaCode": "120225",
    "province": "天津市",
    "city": "天津市",
    "district": "蓟县",
    "detail": "天津市蓟县"
  },
  {
    "id": "44",
    "areaCode": "130000",
    "province": "河北省",
    "city": null,
    "district": null,
    "detail": "河北省"
  },
  {
    "id": "45",
    "areaCode": "130100",
    "province": "河北省",
    "city": "石家庄市",
    "district": null,
    "detail": "河北省石家庄市"
  },
  {
    "id": "46",
    "areaCode": "130101",
    "province": "河北省",
    "city": "石家庄市",
    "district": "市辖区",
    "detail": "河北省石家庄市市辖区"
  },
  {
    "id": "47",
    "areaCode": "130102",
    "province": "河北省",
    "city": "石家庄市",
    "district": "长安区",
    "detail": "河北省石家庄市长安区"
  },
  {
    "id": "48",
    "areaCode": "130103",
    "province": "河北省",
    "city": "石家庄市",
    "district": "桥东区",
    "detail": "河北省石家庄市桥东区"
  },
  {
    "id": "49",
    "areaCode": "130104",
    "province": "河北省",
    "city": "石家庄市",
    "district": "桥西区",
    "detail": "河北省石家庄市桥西区"
  },
  {
    "id": "50",
    "areaCode": "130105",
    "province": "河北省",
    "city": "石家庄市",
    "district": "新华区",
    "detail": "河北省石家庄市新华区"
  },
  {
    "id": "51",
    "areaCode": "130107",
    "province": "河北省",
    "city": "石家庄市",
    "district": "井陉矿区",
    "detail": "河北省石家庄市井陉矿区"
  },
  {
    "id": "52",
    "areaCode": "130108",
    "province": "河北省",
    "city": "石家庄市",
    "district": "裕华区",
    "detail": "河北省石家庄市裕华区"
  },
  {
    "id": "53",
    "areaCode": "130121",
    "province": "河北省",
    "city": "石家庄市",
    "district": "井陉县",
    "detail": "河北省石家庄市井陉县"
  },
  {
    "id": "54",
    "areaCode": "130123",
    "province": "河北省",
    "city": "石家庄市",
    "district": "正定县",
    "detail": "河北省石家庄市正定县"
  },
  {
    "id": "55",
    "areaCode": "130124",
    "province": "河北省",
    "city": "石家庄市",
    "district": "栾城县",
    "detail": "河北省石家庄市栾城县"
  },
  {
    "id": "56",
    "areaCode": "130125",
    "province": "河北省",
    "city": "石家庄市",
    "district": "行唐县",
    "detail": "河北省石家庄市行唐县"
  },
  {
    "id": "57",
    "areaCode": "130126",
    "province": "河北省",
    "city": "石家庄市",
    "district": "灵寿县",
    "detail": "河北省石家庄市灵寿县"
  },
  {
    "id": "58",
    "areaCode": "130127",
    "province": "河北省",
    "city": "石家庄市",
    "district": "高邑县",
    "detail": "河北省石家庄市高邑县"
  },
  {
    "id": "59",
    "areaCode": "130128",
    "province": "河北省",
    "city": "石家庄市",
    "district": "深泽县",
    "detail": "河北省石家庄市深泽县"
  },
  {
    "id": "60",
    "areaCode": "130129",
    "province": "河北省",
    "city": "石家庄市",
    "district": "赞皇县",
    "detail": "河北省石家庄市赞皇县"
  },
  {
    "id": "61",
    "areaCode": "130130",
    "province": "河北省",
    "city": "石家庄市",
    "district": "无极县",
    "detail": "河北省石家庄市无极县"
  },
  {
    "id": "62",
    "areaCode": "130131",
    "province": "河北省",
    "city": "石家庄市",
    "district": "平山县",
    "detail": "河北省石家庄市平山县"
  },
  {
    "id": "63",
    "areaCode": "130132",
    "province": "河北省",
    "city": "石家庄市",
    "district": "元氏县",
    "detail": "河北省石家庄市元氏县"
  },
  {
    "id": "64",
    "areaCode": "130133",
    "province": "河北省",
    "city": "石家庄市",
    "district": "赵 县",
    "detail": "河北省赵 县"
  },
  {
    "id": "65",
    "areaCode": "130181",
    "province": "河北省",
    "city": "石家庄市",
    "district": "辛集市",
    "detail": "河北省辛集市"
  },
  {
    "id": "66",
    "areaCode": "130182",
    "province": "河北省",
    "city": "石家庄市",
    "district": "藁城市",
    "detail": "河北省藁城市"
  },
  {
    "id": "67",
    "areaCode": "130183",
    "province": "河北省",
    "city": "石家庄市",
    "district": "晋州市",
    "detail": "河北省晋州市"
  },
  {
    "id": "68",
    "areaCode": "130184",
    "province": "河北省",
    "city": "石家庄市",
    "district": "新乐市",
    "detail": "河北省新乐市"
  },
  {
    "id": "69",
    "areaCode": "130185",
    "province": "河北省",
    "city": "石家庄市",
    "district": "鹿泉市",
    "detail": "河北省鹿泉市"
  },
  {
    "id": "70",
    "areaCode": "130200",
    "province": "河北省",
    "city": "唐山市",
    "district": null,
    "detail": "河北省唐山市"
  },
  {
    "id": "71",
    "areaCode": "130201",
    "province": "河北省",
    "city": "唐山市",
    "district": "市辖区",
    "detail": "河北省唐山市市辖区"
  },
  {
    "id": "72",
    "areaCode": "130202",
    "province": "河北省",
    "city": "唐山市",
    "district": "路南区",
    "detail": "河北省唐山市路南区"
  },
  {
    "id": "73",
    "areaCode": "130203",
    "province": "河北省",
    "city": "唐山市",
    "district": "路北区",
    "detail": "河北省唐山市路北区"
  },
  {
    "id": "74",
    "areaCode": "130204",
    "province": "河北省",
    "city": "唐山市",
    "district": "古冶区",
    "detail": "河北省唐山市古冶区"
  },
  {
    "id": "75",
    "areaCode": "130205",
    "province": "河北省",
    "city": "唐山市",
    "district": "开平区",
    "detail": "河北省唐山市开平区"
  },
  {
    "id": "76",
    "areaCode": "130207",
    "province": "河北省",
    "city": "唐山市",
    "district": "丰南区",
    "detail": "河北省唐山市丰南区"
  },
  {
    "id": "77",
    "areaCode": "130208",
    "province": "河北省",
    "city": "唐山市",
    "district": "丰润区",
    "detail": "河北省唐山市丰润区"
  },
  {
    "id": "78",
    "areaCode": "130223",
    "province": "河北省",
    "city": "唐山市",
    "district": "滦 县",
    "detail": "河北省滦 县"
  },
  {
    "id": "79",
    "areaCode": "130224",
    "province": "河北省",
    "city": "唐山市",
    "district": "滦南县",
    "detail": "河北省滦南县"
  },
  {
    "id": "80",
    "areaCode": "130225",
    "province": "河北省",
    "city": "唐山市",
    "district": "乐亭县",
    "detail": "河北省乐亭县"
  },
  {
    "id": "81",
    "areaCode": "130227",
    "province": "河北省",
    "city": "唐山市",
    "district": "迁西县",
    "detail": "河北省迁西县"
  },
  {
    "id": "82",
    "areaCode": "130229",
    "province": "河北省",
    "city": "唐山市",
    "district": "玉田县",
    "detail": "河北省玉田县"
  },
  {
    "id": "83",
    "areaCode": "130230",
    "province": "河北省",
    "city": "唐山市",
    "district": "唐海县",
    "detail": "河北省唐海县"
  },
  {
    "id": "84",
    "areaCode": "130281",
    "province": "河北省",
    "city": "唐山市",
    "district": "遵化市",
    "detail": "河北省遵化市"
  },
  {
    "id": "85",
    "areaCode": "130283",
    "province": "河北省",
    "city": "唐山市",
    "district": "迁安市",
    "detail": "河北省迁安市"
  },
  {
    "id": "86",
    "areaCode": "130300",
    "province": "河北省",
    "city": "秦皇岛市",
    "district": null,
    "detail": "河北省秦皇岛市"
  },
  {
    "id": "87",
    "areaCode": "130301",
    "province": "河北省",
    "city": "秦皇岛市",
    "district": "市辖区",
    "detail": "河北省秦皇岛市市辖区"
  },
  {
    "id": "88",
    "areaCode": "130302",
    "province": "河北省",
    "city": "秦皇岛市",
    "district": "海港区",
    "detail": "河北省秦皇岛市海港区"
  },
  {
    "id": "89",
    "areaCode": "130303",
    "province": "河北省",
    "city": "秦皇岛市",
    "district": "山海关区",
    "detail": "河北省秦皇岛市山海关区"
  },
  {
    "id": "90",
    "areaCode": "130304",
    "province": "河北省",
    "city": "秦皇岛市",
    "district": "北戴河区",
    "detail": "河北省秦皇岛市北戴河区"
  },
  {
    "id": "91",
    "areaCode": "130321",
    "province": "河北省",
    "city": "秦皇岛市",
    "district": "青龙满族自治县",
    "detail": "河北省青龙满族自治县"
  },
  {
    "id": "92",
    "areaCode": "130322",
    "province": "河北省",
    "city": "秦皇岛市",
    "district": "昌黎县",
    "detail": "河北省昌黎县"
  },
  {
    "id": "93",
    "areaCode": "130323",
    "province": "河北省",
    "city": "秦皇岛市",
    "district": "抚宁县",
    "detail": "河北省抚宁县"
  },
  {
    "id": "94",
    "areaCode": "130324",
    "province": "河北省",
    "city": "秦皇岛市",
    "district": "卢龙县",
    "detail": "河北省卢龙县"
  },
  {
    "id": "95",
    "areaCode": "130400",
    "province": "河北省",
    "city": "邯郸市",
    "district": "邯郸市",
    "detail": "河北省邯郸市"
  },
  {
    "id": "96",
    "areaCode": "130401",
    "province": "河北省",
    "city": "邯郸市",
    "district": "市辖区",
    "detail": "河北省邯郸市市辖区"
  },
  {
    "id": "97",
    "areaCode": "130402",
    "province": "河北省",
    "city": "邯郸市",
    "district": "邯山区",
    "detail": "河北省邯郸市邯山区"
  },
  {
    "id": "98",
    "areaCode": "130403",
    "province": "河北省",
    "city": "邯郸市",
    "district": "丛台区",
    "detail": "河北省邯郸市丛台区"
  },
  {
    "id": "99",
    "areaCode": "130404",
    "province": "河北省",
    "city": "邯郸市",
    "district": "复兴区",
    "detail": "河北省邯郸市复兴区"
  },
  {
    "id": "100",
    "areaCode": "130406",
    "province": "河北省",
    "city": "邯郸市",
    "district": "峰峰矿区",
    "detail": "河北省邯郸市峰峰矿区"
  },
  {
    "id": "101",
    "areaCode": "130421",
    "province": "河北省",
    "city": "邯郸市",
    "district": "邯郸县",
    "detail": "河北省邯郸县"
  },
  {
    "id": "102",
    "areaCode": "130423",
    "province": "河北省",
    "city": "邯郸市",
    "district": "临漳县",
    "detail": "河北省临漳县"
  },
  {
    "id": "103",
    "areaCode": "130424",
    "province": "河北省",
    "city": "邯郸市",
    "district": "成安县",
    "detail": "河北省成安县"
  },
  {
    "id": "104",
    "areaCode": "130425",
    "province": "河北省",
    "city": "邯郸市",
    "district": "大名县",
    "detail": "河北省大名县"
  },
  {
    "id": "105",
    "areaCode": "130426",
    "province": "河北省",
    "city": "邯郸市",
    "district": "涉 县",
    "detail": "河北省涉 县"
  },
  {
    "id": "106",
    "areaCode": "130427",
    "province": "河北省",
    "city": "邯郸市",
    "district": "磁 县",
    "detail": "河北省磁 县"
  },
  {
    "id": "107",
    "areaCode": "130428",
    "province": "河北省",
    "city": "邯郸市",
    "district": "肥乡县",
    "detail": "河北省肥乡县"
  },
  {
    "id": "108",
    "areaCode": "130429",
    "province": "河北省",
    "city": "邯郸市",
    "district": "永年县",
    "detail": "河北省永年县"
  },
  {
    "id": "109",
    "areaCode": "130430",
    "province": "河北省",
    "city": "邯郸市",
    "district": "邱 县",
    "detail": "河北省邱 县"
  },
  {
    "id": "110",
    "areaCode": "130431",
    "province": "河北省",
    "city": "邯郸市",
    "district": "鸡泽县",
    "detail": "河北省鸡泽县"
  },
  {
    "id": "111",
    "areaCode": "130432",
    "province": "河北省",
    "city": "邯郸市",
    "district": "广平县",
    "detail": "河北省广平县"
  },
  {
    "id": "112",
    "areaCode": "130433",
    "province": "河北省",
    "city": "邯郸市",
    "district": "馆陶县",
    "detail": "河北省馆陶县"
  },
  {
    "id": "113",
    "areaCode": "130434",
    "province": "河北省",
    "city": "邯郸市",
    "district": "魏 县",
    "detail": "河北省魏 县"
  },
  {
    "id": "114",
    "areaCode": "130435",
    "province": "河北省",
    "city": "邯郸市",
    "district": "曲周县",
    "detail": "河北省曲周县"
  },
  {
    "id": "115",
    "areaCode": "130481",
    "province": "河北省",
    "city": "邯郸市",
    "district": "武安市",
    "detail": "河北省武安市"
  },
  {
    "id": "116",
    "areaCode": "130500",
    "province": "河北省",
    "city": "邢台市",
    "district": null,
    "detail": "河北省邢台市"
  },
  {
    "id": "117",
    "areaCode": "130501",
    "province": "河北省",
    "city": "邢台市",
    "district": "市辖区",
    "detail": "河北省邢台市市辖区"
  },
  {
    "id": "118",
    "areaCode": "130502",
    "province": "河北省",
    "city": "邢台市",
    "district": "桥东区",
    "detail": "河北省邢台市桥东区"
  },
  {
    "id": "119",
    "areaCode": "130503",
    "province": "河北省",
    "city": "邢台市",
    "district": "桥西区",
    "detail": "河北省邢台市桥西区"
  },
  {
    "id": "120",
    "areaCode": "130521",
    "province": "河北省",
    "city": "邢台市",
    "district": "邢台县",
    "detail": "河北省邢台县"
  },
  {
    "id": "121",
    "areaCode": "130522",
    "province": "河北省",
    "city": "邢台市",
    "district": "临城县",
    "detail": "河北省临城县"
  },
  {
    "id": "122",
    "areaCode": "130523",
    "province": "河北省",
    "city": "邢台市",
    "district": "内丘县",
    "detail": "河北省内丘县"
  },
  {
    "id": "123",
    "areaCode": "130524",
    "province": "河北省",
    "city": "邢台市",
    "district": "柏乡县",
    "detail": "河北省柏乡县"
  },
  {
    "id": "124",
    "areaCode": "130525",
    "province": "河北省",
    "city": "邢台市",
    "district": "隆尧县",
    "detail": "河北省隆尧县"
  },
  {
    "id": "125",
    "areaCode": "130526",
    "province": "河北省",
    "city": "邢台市",
    "district": "任 县",
    "detail": "河北省任 县"
  },
  {
    "id": "126",
    "areaCode": "130527",
    "province": "河北省",
    "city": "邢台市",
    "district": "南和县",
    "detail": "河北省南和县"
  },
  {
    "id": "127",
    "areaCode": "130528",
    "province": "河北省",
    "city": "邢台市",
    "district": "宁晋县",
    "detail": "河北省宁晋县"
  },
  {
    "id": "128",
    "areaCode": "130529",
    "province": "河北省",
    "city": "邢台市",
    "district": "巨鹿县",
    "detail": "河北省巨鹿县"
  },
  {
    "id": "129",
    "areaCode": "130530",
    "province": "河北省",
    "city": "邢台市",
    "district": "新河县",
    "detail": "河北省新河县"
  },
  {
    "id": "130",
    "areaCode": "130531",
    "province": "河北省",
    "city": "邢台市",
    "district": "广宗县",
    "detail": "河北省广宗县"
  },
  {
    "id": "131",
    "areaCode": "130532",
    "province": "河北省",
    "city": "邢台市",
    "district": "平乡县",
    "detail": "河北省平乡县"
  },
  {
    "id": "132",
    "areaCode": "130533",
    "province": "河北省",
    "city": "邢台市",
    "district": "威 县",
    "detail": "河北省威 县"
  },
  {
    "id": "133",
    "areaCode": "130534",
    "province": "河北省",
    "city": "邢台市",
    "district": "清河县",
    "detail": "河北省清河县"
  },
  {
    "id": "134",
    "areaCode": "130535",
    "province": "河北省",
    "city": "邢台市",
    "district": "临西县",
    "detail": "河北省临西县"
  },
  {
    "id": "135",
    "areaCode": "130581",
    "province": "河北省",
    "city": "邢台市",
    "district": "南宫市",
    "detail": "河北省南宫市"
  },
  {
    "id": "136",
    "areaCode": "130582",
    "province": "河北省",
    "city": "邢台市",
    "district": "沙河市",
    "detail": "河北省沙河市"
  },
  {
    "id": "137",
    "areaCode": "130600",
    "province": "河北省",
    "city": "保定市",
    "district": null,
    "detail": "河北省保定市"
  },
  {
    "id": "138",
    "areaCode": "130601",
    "province": "河北省",
    "city": "保定市",
    "district": "市辖区",
    "detail": "河北省保定市市辖区"
  },
  {
    "id": "139",
    "areaCode": "130602",
    "province": "河北省",
    "city": "保定市",
    "district": "新市区",
    "detail": "河北省保定市新市区"
  },
  {
    "id": "140",
    "areaCode": "130603",
    "province": "河北省",
    "city": "保定市",
    "district": "北市区",
    "detail": "河北省保定市北市区"
  },
  {
    "id": "141",
    "areaCode": "130604",
    "province": "河北省",
    "city": "保定市",
    "district": "南市区",
    "detail": "河北省保定市南市区"
  },
  {
    "id": "142",
    "areaCode": "130621",
    "province": "河北省",
    "city": "保定市",
    "district": "满城县",
    "detail": "河北省满城县"
  },
  {
    "id": "143",
    "areaCode": "130622",
    "province": "河北省",
    "city": "保定市",
    "district": "清苑县",
    "detail": "河北省清苑县"
  },
  {
    "id": "144",
    "areaCode": "130623",
    "province": "河北省",
    "city": "保定市",
    "district": "涞水县",
    "detail": "河北省涞水县"
  },
  {
    "id": "145",
    "areaCode": "130624",
    "province": "河北省",
    "city": "保定市",
    "district": "阜平县",
    "detail": "河北省阜平县"
  },
  {
    "id": "146",
    "areaCode": "130625",
    "province": "河北省",
    "city": "保定市",
    "district": "徐水县",
    "detail": "河北省徐水县"
  },
  {
    "id": "147",
    "areaCode": "130626",
    "province": "河北省",
    "city": "保定市",
    "district": "定兴县",
    "detail": "河北省定兴县"
  },
  {
    "id": "148",
    "areaCode": "130627",
    "province": "河北省",
    "city": "保定市",
    "district": "唐 县",
    "detail": "河北省唐 县"
  },
  {
    "id": "149",
    "areaCode": "130628",
    "province": "河北省",
    "city": "保定市",
    "district": "高阳县",
    "detail": "河北省高阳县"
  },
  {
    "id": "150",
    "areaCode": "130629",
    "province": "河北省",
    "city": "保定市",
    "district": "容城县",
    "detail": "河北省容城县"
  },
  {
    "id": "151",
    "areaCode": "130630",
    "province": "河北省",
    "city": "保定市",
    "district": "涞源县",
    "detail": "河北省涞源县"
  },
  {
    "id": "152",
    "areaCode": "130631",
    "province": "河北省",
    "city": "保定市",
    "district": "望都县",
    "detail": "河北省望都县"
  },
  {
    "id": "153",
    "areaCode": "130632",
    "province": "河北省",
    "city": "保定市",
    "district": "安新县",
    "detail": "河北省安新县"
  },
  {
    "id": "154",
    "areaCode": "130633",
    "province": "河北省",
    "city": "保定市",
    "district": "易 县",
    "detail": "河北省易 县"
  },
  {
    "id": "155",
    "areaCode": "130634",
    "province": "河北省",
    "city": "保定市",
    "district": "曲阳县",
    "detail": "河北省曲阳县"
  },
  {
    "id": "156",
    "areaCode": "130635",
    "province": "河北省",
    "city": "保定市",
    "district": "蠡 县",
    "detail": "河北省蠡 县"
  },
  {
    "id": "157",
    "areaCode": "130636",
    "province": "河北省",
    "city": "保定市",
    "district": "顺平县",
    "detail": "河北省顺平县"
  },
  {
    "id": "158",
    "areaCode": "130637",
    "province": "河北省",
    "city": "保定市",
    "district": "博野县",
    "detail": "河北省博野县"
  },
  {
    "id": "159",
    "areaCode": "130638",
    "province": "河北省",
    "city": "保定市",
    "district": "雄 县",
    "detail": "河北省雄 县"
  },
  {
    "id": "160",
    "areaCode": "130681",
    "province": "河北省",
    "city": "保定市",
    "district": "涿州市",
    "detail": "河北省涿州市"
  },
  {
    "id": "161",
    "areaCode": "130682",
    "province": "河北省",
    "city": "保定市",
    "district": "定州市",
    "detail": "河北省定州市"
  },
  {
    "id": "162",
    "areaCode": "130683",
    "province": "河北省",
    "city": "保定市",
    "district": "安国市",
    "detail": "河北省安国市"
  },
  {
    "id": "163",
    "areaCode": "130684",
    "province": "河北省",
    "city": "保定市",
    "district": "高碑店市",
    "detail": "河北省高碑店市"
  },
  {
    "id": "164",
    "areaCode": "130700",
    "province": "河北省",
    "city": "张家口市",
    "district": null,
    "detail": "河北省张家口市"
  },
  {
    "id": "165",
    "areaCode": "130701",
    "province": "河北省",
    "city": "张家口市",
    "district": "市辖区",
    "detail": "河北省张家口市市辖区"
  },
  {
    "id": "166",
    "areaCode": "130702",
    "province": "河北省",
    "city": "张家口市",
    "district": "桥东区",
    "detail": "河北省张家口市桥东区"
  },
  {
    "id": "167",
    "areaCode": "130703",
    "province": "河北省",
    "city": "张家口市",
    "district": "桥西区",
    "detail": "河北省张家口市桥西区"
  },
  {
    "id": "168",
    "areaCode": "130705",
    "province": "河北省",
    "city": "张家口市",
    "district": "宣化区",
    "detail": "河北省张家口市宣化区"
  },
  {
    "id": "169",
    "areaCode": "130706",
    "province": "河北省",
    "city": "张家口市",
    "district": "下花园区",
    "detail": "河北省张家口市下花园区"
  },
  {
    "id": "170",
    "areaCode": "130721",
    "province": "河北省",
    "city": "张家口市",
    "district": "宣化县",
    "detail": "河北省宣化县"
  },
  {
    "id": "171",
    "areaCode": "130722",
    "province": "河北省",
    "city": "张家口市",
    "district": "张北县",
    "detail": "河北省张北县"
  },
  {
    "id": "172",
    "areaCode": "130723",
    "province": "河北省",
    "city": "张家口市",
    "district": "康保县",
    "detail": "河北省康保县"
  },
  {
    "id": "173",
    "areaCode": "130724",
    "province": "河北省",
    "city": "张家口市",
    "district": "沽源县",
    "detail": "河北省沽源县"
  },
  {
    "id": "174",
    "areaCode": "130725",
    "province": "河北省",
    "city": "张家口市",
    "district": "尚义县",
    "detail": "河北省尚义县"
  },
  {
    "id": "175",
    "areaCode": "130726",
    "province": "河北省",
    "city": "张家口市",
    "district": "蔚 县",
    "detail": "河北省蔚 县"
  },
  {
    "id": "176",
    "areaCode": "130727",
    "province": "河北省",
    "city": "张家口市",
    "district": "阳原县",
    "detail": "河北省阳原县"
  },
  {
    "id": "177",
    "areaCode": "130728",
    "province": "河北省",
    "city": "张家口市",
    "district": "怀安县",
    "detail": "河北省怀安县"
  },
  {
    "id": "178",
    "areaCode": "130729",
    "province": "河北省",
    "city": "张家口市",
    "district": "万全县",
    "detail": "河北省万全县"
  },
  {
    "id": "179",
    "areaCode": "130730",
    "province": "河北省",
    "city": "张家口市",
    "district": "怀来县",
    "detail": "河北省怀来县"
  },
  {
    "id": "180",
    "areaCode": "130731",
    "province": "河北省",
    "city": "张家口市",
    "district": "涿鹿县",
    "detail": "河北省涿鹿县"
  },
  {
    "id": "181",
    "areaCode": "130732",
    "province": "河北省",
    "city": "张家口市",
    "district": "赤城县",
    "detail": "河北省赤城县"
  },
  {
    "id": "182",
    "areaCode": "130733",
    "province": "河北省",
    "city": "张家口市",
    "district": "崇礼县",
    "detail": "河北省崇礼县"
  },
  {
    "id": "183",
    "areaCode": "130800",
    "province": "河北省",
    "city": "承德市",
    "district": null,
    "detail": "河北省承德市"
  },
  {
    "id": "184",
    "areaCode": "130801",
    "province": "河北省",
    "city": "承德市",
    "district": "市辖区",
    "detail": "河北省市辖区"
  },
  {
    "id": "185",
    "areaCode": "130802",
    "province": "河北省",
    "city": "承德市",
    "district": "双桥区",
    "detail": "河北省承德市双桥区"
  },
  {
    "id": "186",
    "areaCode": "130803",
    "province": "河北省",
    "city": "承德市",
    "district": "双滦区",
    "detail": "河北省承德市双滦区"
  },
  {
    "id": "187",
    "areaCode": "130804",
    "province": "河北省",
    "city": "承德市",
    "district": "鹰手营子矿区",
    "detail": "河北省承德市鹰手营子矿区"
  },
  {
    "id": "188",
    "areaCode": "130821",
    "province": "河北省",
    "city": "承德市",
    "district": "承德县",
    "detail": "河北省承德县"
  },
  {
    "id": "189",
    "areaCode": "130822",
    "province": "河北省",
    "city": "承德市",
    "district": "兴隆县",
    "detail": "河北省兴隆县"
  },
  {
    "id": "190",
    "areaCode": "130823",
    "province": "河北省",
    "city": "承德市",
    "district": "平泉县",
    "detail": "河北省平泉县"
  },
  {
    "id": "191",
    "areaCode": "130824",
    "province": "河北省",
    "city": "承德市",
    "district": "滦平县",
    "detail": "河北省滦平县"
  },
  {
    "id": "192",
    "areaCode": "130825",
    "province": "河北省",
    "city": "承德市",
    "district": "隆化县",
    "detail": "河北省隆化县"
  },
  {
    "id": "193",
    "areaCode": "130826",
    "province": "河北省",
    "city": "承德市",
    "district": "丰宁满族自治县",
    "detail": "河北省丰宁满族自治县"
  },
  {
    "id": "194",
    "areaCode": "130827",
    "province": "河北省",
    "city": "承德市",
    "district": "宽城满族自治县",
    "detail": "河北省宽城满族自治县"
  },
  {
    "id": "195",
    "areaCode": "130828",
    "province": "河北省",
    "city": "承德市",
    "district": "围场满族蒙古族自治县",
    "detail": "河北省围场满族蒙古族自治县"
  },
  {
    "id": "196",
    "areaCode": "130900",
    "province": "河北省",
    "city": "沧州市",
    "district": null,
    "detail": "河北省沧州市"
  },
  {
    "id": "197",
    "areaCode": "130901",
    "province": "河北省",
    "city": "沧州市",
    "district": "市辖区",
    "detail": "河北省沧州市市辖区"
  },
  {
    "id": "198",
    "areaCode": "130902",
    "province": "河北省",
    "city": "沧州市",
    "district": "新华区",
    "detail": "河北省沧州市新华区"
  },
  {
    "id": "199",
    "areaCode": "130903",
    "province": "河北省",
    "city": "沧州市",
    "district": "运河区",
    "detail": "河北省沧州市运河区"
  },
  {
    "id": "200",
    "areaCode": "130921",
    "province": "河北省",
    "city": "沧州市",
    "district": "沧 县",
    "detail": "河北省沧 县"
  },
  {
    "id": "201",
    "areaCode": "130922",
    "province": "河北省",
    "city": "沧州市",
    "district": "青 县",
    "detail": "河北省青 县"
  },
  {
    "id": "202",
    "areaCode": "130923",
    "province": "河北省",
    "city": "沧州市",
    "district": "东光县",
    "detail": "河北省东光县"
  },
  {
    "id": "203",
    "areaCode": "130924",
    "province": "河北省",
    "city": "沧州市",
    "district": "海兴县",
    "detail": "河北省海兴县"
  },
  {
    "id": "204",
    "areaCode": "130925",
    "province": "河北省",
    "city": "沧州市",
    "district": "盐山县",
    "detail": "河北省盐山县"
  },
  {
    "id": "205",
    "areaCode": "130926",
    "province": "河北省",
    "city": "沧州市",
    "district": "肃宁县",
    "detail": "河北省肃宁县"
  },
  {
    "id": "206",
    "areaCode": "130927",
    "province": "河北省",
    "city": "沧州市",
    "district": "南皮县",
    "detail": "河北省南皮县"
  },
  {
    "id": "207",
    "areaCode": "130928",
    "province": "河北省",
    "city": "沧州市",
    "district": "吴桥县",
    "detail": "河北省吴桥县"
  },
  {
    "id": "208",
    "areaCode": "130929",
    "province": "河北省",
    "city": "沧州市",
    "district": "献 县",
    "detail": "河北省献 县"
  },
  {
    "id": "209",
    "areaCode": "130930",
    "province": "河北省",
    "city": "沧州市",
    "district": "孟村回族自治县",
    "detail": "河北省孟村回族自治县"
  },
  {
    "id": "210",
    "areaCode": "130981",
    "province": "河北省",
    "city": "沧州市",
    "district": "泊头市",
    "detail": "河北省泊头市"
  },
  {
    "id": "211",
    "areaCode": "130982",
    "province": "河北省",
    "city": "沧州市",
    "district": "任丘市",
    "detail": "河北省任丘市"
  },
  {
    "id": "212",
    "areaCode": "130983",
    "province": "河北省",
    "city": "沧州市",
    "district": "黄骅市",
    "detail": "河北省黄骅市"
  },
  {
    "id": "213",
    "areaCode": "130984",
    "province": "河北省",
    "city": "沧州市",
    "district": "河间市",
    "detail": "河北省河间市"
  },
  {
    "id": "214",
    "areaCode": "131000",
    "province": "河北省",
    "city": "廊坊市",
    "district": null,
    "detail": "河北省廊坊市"
  },
  {
    "id": "215",
    "areaCode": "131001",
    "province": "河北省",
    "city": "廊坊市",
    "district": "市辖区",
    "detail": "河北省廊坊市市辖区"
  },
  {
    "id": "216",
    "areaCode": "131002",
    "province": "河北省",
    "city": "廊坊市",
    "district": "安次区",
    "detail": "河北省廊坊市安次区"
  },
  {
    "id": "217",
    "areaCode": "131003",
    "province": "河北省",
    "city": "廊坊市",
    "district": "广阳区",
    "detail": "河北省廊坊市广阳区"
  },
  {
    "id": "218",
    "areaCode": "131022",
    "province": "河北省",
    "city": "廊坊市",
    "district": "固安县",
    "detail": "河北省固安县"
  },
  {
    "id": "219",
    "areaCode": "131023",
    "province": "河北省",
    "city": "廊坊市",
    "district": "永清县",
    "detail": "河北省永清县"
  },
  {
    "id": "220",
    "areaCode": "131024",
    "province": "河北省",
    "city": "廊坊市",
    "district": "香河县",
    "detail": "河北省香河县"
  },
  {
    "id": "221",
    "areaCode": "131025",
    "province": "河北省",
    "city": "廊坊市",
    "district": "大城县",
    "detail": "河北省大城县"
  },
  {
    "id": "222",
    "areaCode": "131026",
    "province": "河北省",
    "city": "廊坊市",
    "district": "文安县",
    "detail": "河北省文安县"
  },
  {
    "id": "223",
    "areaCode": "131028",
    "province": "河北省",
    "city": "廊坊市",
    "district": "大厂回族自治县",
    "detail": "河北省大厂回族自治县"
  },
  {
    "id": "224",
    "areaCode": "131081",
    "province": "河北省",
    "city": "廊坊市",
    "district": "霸州市",
    "detail": "河北省霸州市"
  },
  {
    "id": "225",
    "areaCode": "131082",
    "province": "河北省",
    "city": "廊坊市",
    "district": "三河市",
    "detail": "河北省三河市"
  },
  {
    "id": "226",
    "areaCode": "131100",
    "province": "河北省",
    "city": "衡水市",
    "district": null,
    "detail": "河北省衡水市"
  },
  {
    "id": "227",
    "areaCode": "131101",
    "province": "河北省",
    "city": "衡水市",
    "district": "市辖区",
    "detail": "河北省市辖区"
  },
  {
    "id": "228",
    "areaCode": "131102",
    "province": "河北省",
    "city": "衡水市",
    "district": "桃城区",
    "detail": "河北省衡水市桃城区"
  },
  {
    "id": "229",
    "areaCode": "131121",
    "province": "河北省",
    "city": "衡水市",
    "district": "枣强县",
    "detail": "河北省枣强县"
  },
  {
    "id": "230",
    "areaCode": "131122",
    "province": "河北省",
    "city": "衡水市",
    "district": "武邑县",
    "detail": "河北省武邑县"
  },
  {
    "id": "231",
    "areaCode": "131123",
    "province": "河北省",
    "city": "衡水市",
    "district": "武强县",
    "detail": "河北省武强县"
  },
  {
    "id": "232",
    "areaCode": "131124",
    "province": "河北省",
    "city": "衡水市",
    "district": "饶阳县",
    "detail": "河北省饶阳县"
  },
  {
    "id": "233",
    "areaCode": "131125",
    "province": "河北省",
    "city": "衡水市",
    "district": "安平县",
    "detail": "河北省安平县"
  },
  {
    "id": "234",
    "areaCode": "131126",
    "province": "河北省",
    "city": "衡水市",
    "district": "故城县",
    "detail": "河北省故城县"
  },
  {
    "id": "235",
    "areaCode": "131127",
    "province": "河北省",
    "city": "衡水市",
    "district": "景 县",
    "detail": "河北省景 县"
  },
  {
    "id": "236",
    "areaCode": "131128",
    "province": "河北省",
    "city": "衡水市",
    "district": "阜城县",
    "detail": "河北省阜城县"
  },
  {
    "id": "237",
    "areaCode": "131181",
    "province": "河北省",
    "city": "衡水市",
    "district": "冀州市",
    "detail": "河北省冀州市"
  },
  {
    "id": "238",
    "areaCode": "131182",
    "province": "河北省",
    "city": "衡水市",
    "district": "深州市",
    "detail": "河北省深州市"
  },
  {
    "id": "239",
    "areaCode": "140000",
    "province": "山西省",
    "city": null,
    "district": null,
    "detail": "山西省"
  },
  {
    "id": "240",
    "areaCode": "140100",
    "province": "山西省",
    "city": "太原市",
    "district": null,
    "detail": "山西省太原市"
  },
  {
    "id": "241",
    "areaCode": "140101",
    "province": "山西省",
    "city": "太原市",
    "district": "市辖区",
    "detail": "山西省市辖区"
  },
  {
    "id": "242",
    "areaCode": "140105",
    "province": "山西省",
    "city": "太原市",
    "district": "小店区",
    "detail": "山西省太原市小店区"
  },
  {
    "id": "243",
    "areaCode": "140106",
    "province": "山西省",
    "city": "太原市",
    "district": "迎泽区",
    "detail": "山西省太原市迎泽区"
  },
  {
    "id": "244",
    "areaCode": "140107",
    "province": "山西省",
    "city": "太原市",
    "district": "杏花岭区",
    "detail": "山西省太原市杏花岭区"
  },
  {
    "id": "245",
    "areaCode": "140108",
    "province": "山西省",
    "city": "太原市",
    "district": "尖草坪区",
    "detail": "山西省太原市尖草坪区"
  },
  {
    "id": "246",
    "areaCode": "140109",
    "province": "山西省",
    "city": "太原市",
    "district": "万柏林区",
    "detail": "山西省太原市万柏林区"
  },
  {
    "id": "247",
    "areaCode": "140110",
    "province": "山西省",
    "city": "太原市",
    "district": "晋源区",
    "detail": "山西省太原市晋源区"
  },
  {
    "id": "248",
    "areaCode": "140121",
    "province": "山西省",
    "city": "太原市",
    "district": "清徐县",
    "detail": "山西省清徐县"
  },
  {
    "id": "249",
    "areaCode": "140122",
    "province": "山西省",
    "city": "太原市",
    "district": "阳曲县",
    "detail": "山西省阳曲县"
  },
  {
    "id": "250",
    "areaCode": "140123",
    "province": "山西省",
    "city": "太原市",
    "district": "娄烦县",
    "detail": "山西省娄烦县"
  },
  {
    "id": "251",
    "areaCode": "140181",
    "province": "山西省",
    "city": "太原市",
    "district": "古交市",
    "detail": "山西省古交市"
  },
  {
    "id": "252",
    "areaCode": "140200",
    "province": "山西省",
    "city": "大同市",
    "district": null,
    "detail": "山西省大同市"
  },
  {
    "id": "253",
    "areaCode": "140201",
    "province": "山西省",
    "city": "大同市",
    "district": "市辖区",
    "detail": "山西省大同市市辖区"
  },
  {
    "id": "254",
    "areaCode": "140202",
    "province": "山西省",
    "city": "大同市",
    "district": "城 区",
    "detail": "山西省大同市城 区"
  },
  {
    "id": "255",
    "areaCode": "140203",
    "province": "山西省",
    "city": "大同市",
    "district": "矿 区",
    "detail": "山西省大同市矿 区"
  },
  {
    "id": "256",
    "areaCode": "140211",
    "province": "山西省",
    "city": "大同市",
    "district": "南郊区",
    "detail": "山西省大同市南郊区"
  },
  {
    "id": "257",
    "areaCode": "140212",
    "province": "山西省",
    "city": "大同市",
    "district": "新荣区",
    "detail": "山西省大同市新荣区"
  },
  {
    "id": "258",
    "areaCode": "140221",
    "province": "山西省",
    "city": "大同市",
    "district": "阳高县",
    "detail": "山西省阳高县"
  },
  {
    "id": "259",
    "areaCode": "140222",
    "province": "山西省",
    "city": "大同市",
    "district": "天镇县",
    "detail": "山西省天镇县"
  },
  {
    "id": "260",
    "areaCode": "140223",
    "province": "山西省",
    "city": "大同市",
    "district": "广灵县",
    "detail": "山西省广灵县"
  },
  {
    "id": "261",
    "areaCode": "140224",
    "province": "山西省",
    "city": "大同市",
    "district": "灵丘县",
    "detail": "山西省灵丘县"
  },
  {
    "id": "262",
    "areaCode": "140225",
    "province": "山西省",
    "city": "大同市",
    "district": "浑源县",
    "detail": "山西省浑源县"
  },
  {
    "id": "263",
    "areaCode": "140226",
    "province": "山西省",
    "city": "大同市",
    "district": "左云县",
    "detail": "山西省左云县"
  },
  {
    "id": "264",
    "areaCode": "140227",
    "province": "山西省",
    "city": "大同市",
    "district": "大同县",
    "detail": "山西省大同县"
  },
  {
    "id": "265",
    "areaCode": "140300",
    "province": "山西省",
    "city": "阳泉市",
    "district": null,
    "detail": "山西省阳泉市"
  },
  {
    "id": "266",
    "areaCode": "140301",
    "province": "山西省",
    "city": "阳泉市",
    "district": "市辖区",
    "detail": "山西省阳泉市市辖区"
  },
  {
    "id": "267",
    "areaCode": "140302",
    "province": "山西省",
    "city": "阳泉市",
    "district": "城 区",
    "detail": "山西省阳泉市城 区"
  },
  {
    "id": "268",
    "areaCode": "140303",
    "province": "山西省",
    "city": "阳泉市",
    "district": "矿 区",
    "detail": "山西省阳泉市矿 区"
  },
  {
    "id": "269",
    "areaCode": "140311",
    "province": "山西省",
    "city": "阳泉市",
    "district": "郊 区",
    "detail": "山西省阳泉市郊 区"
  },
  {
    "id": "270",
    "areaCode": "140321",
    "province": "山西省",
    "city": "阳泉市",
    "district": "平定县",
    "detail": "山西省平定县"
  },
  {
    "id": "271",
    "areaCode": "140322",
    "province": "山西省",
    "city": "阳泉市",
    "district": "盂 县",
    "detail": "山西省盂 县"
  },
  {
    "id": "272",
    "areaCode": "140400",
    "province": "山西省",
    "city": "长治市",
    "district": null,
    "detail": "山西省长治市"
  },
  {
    "id": "273",
    "areaCode": "140401",
    "province": "山西省",
    "city": "长治市",
    "district": "市辖区",
    "detail": "山西省长治市市辖区"
  },
  {
    "id": "274",
    "areaCode": "140402",
    "province": "山西省",
    "city": "长治市",
    "district": "城 区",
    "detail": "山西省长治市城 区"
  },
  {
    "id": "275",
    "areaCode": "140411",
    "province": "山西省",
    "city": "长治市",
    "district": "郊 区",
    "detail": "山西省长治市郊 区"
  },
  {
    "id": "276",
    "areaCode": "140421",
    "province": "山西省",
    "city": "长治市",
    "district": "长治县",
    "detail": "山西省长治县"
  },
  {
    "id": "277",
    "areaCode": "140423",
    "province": "山西省",
    "city": "长治市",
    "district": "襄垣县",
    "detail": "山西省襄垣县"
  },
  {
    "id": "278",
    "areaCode": "140424",
    "province": "山西省",
    "city": "长治市",
    "district": "屯留县",
    "detail": "山西省屯留县"
  },
  {
    "id": "279",
    "areaCode": "140425",
    "province": "山西省",
    "city": "长治市",
    "district": "平顺县",
    "detail": "山西省平顺县"
  },
  {
    "id": "280",
    "areaCode": "140426",
    "province": "山西省",
    "city": "长治市",
    "district": "黎城县",
    "detail": "山西省黎城县"
  },
  {
    "id": "281",
    "areaCode": "140427",
    "province": "山西省",
    "city": "长治市",
    "district": "壶关县",
    "detail": "山西省壶关县"
  },
  {
    "id": "282",
    "areaCode": "140428",
    "province": "山西省",
    "city": "长治市",
    "district": "长子县",
    "detail": "山西省长子县"
  },
  {
    "id": "283",
    "areaCode": "140429",
    "province": "山西省",
    "city": "长治市",
    "district": "武乡县",
    "detail": "山西省武乡县"
  },
  {
    "id": "284",
    "areaCode": "140430",
    "province": "山西省",
    "city": "长治市",
    "district": "沁 县",
    "detail": "山西省沁 县"
  },
  {
    "id": "285",
    "areaCode": "140431",
    "province": "山西省",
    "city": "长治市",
    "district": "沁源县",
    "detail": "山西省沁源县"
  },
  {
    "id": "286",
    "areaCode": "140481",
    "province": "山西省",
    "city": "长治市",
    "district": "潞城市",
    "detail": "山西省潞城市"
  },
  {
    "id": "287",
    "areaCode": "140500",
    "province": "山西省",
    "city": "晋城市",
    "district": null,
    "detail": "山西省晋城市"
  },
  {
    "id": "288",
    "areaCode": "140501",
    "province": "山西省",
    "city": "晋城市",
    "district": "市辖区",
    "detail": "山西省晋城市市辖区"
  },
  {
    "id": "289",
    "areaCode": "140502",
    "province": "山西省",
    "city": "晋城市",
    "district": "城 区",
    "detail": "山西省晋城市城 区"
  },
  {
    "id": "290",
    "areaCode": "140521",
    "province": "山西省",
    "city": "晋城市",
    "district": "沁水县",
    "detail": "山西省沁水县"
  },
  {
    "id": "291",
    "areaCode": "140522",
    "province": "山西省",
    "city": "晋城市",
    "district": "阳城县",
    "detail": "山西省阳城县"
  },
  {
    "id": "292",
    "areaCode": "140524",
    "province": "山西省",
    "city": "晋城市",
    "district": "陵川县",
    "detail": "山西省陵川县"
  },
  {
    "id": "293",
    "areaCode": "140525",
    "province": "山西省",
    "city": "晋城市",
    "district": "泽州县",
    "detail": "山西省泽州县"
  },
  {
    "id": "294",
    "areaCode": "140581",
    "province": "山西省",
    "city": "晋城市",
    "district": "高平市",
    "detail": "山西省高平市"
  },
  {
    "id": "295",
    "areaCode": "140600",
    "province": "山西省",
    "city": "朔州市",
    "district": null,
    "detail": "山西省朔州市"
  },
  {
    "id": "296",
    "areaCode": "140601",
    "province": "山西省",
    "city": "朔州市",
    "district": "市辖区",
    "detail": "山西省朔州市市辖区"
  },
  {
    "id": "297",
    "areaCode": "140602",
    "province": "山西省",
    "city": "朔州市",
    "district": "朔城区",
    "detail": "山西省朔州市朔城区"
  },
  {
    "id": "298",
    "areaCode": "140603",
    "province": "山西省",
    "city": "朔州市",
    "district": "平鲁区",
    "detail": "山西省朔州市平鲁区"
  },
  {
    "id": "299",
    "areaCode": "140621",
    "province": "山西省",
    "city": "朔州市",
    "district": "山阴县",
    "detail": "山西省山阴县"
  },
  {
    "id": "300",
    "areaCode": "140622",
    "province": "山西省",
    "city": "朔州市",
    "district": "应 县",
    "detail": "山西省应 县"
  },
  {
    "id": "301",
    "areaCode": "140623",
    "province": "山西省",
    "city": "朔州市",
    "district": "右玉县",
    "detail": "山西省右玉县"
  },
  {
    "id": "302",
    "areaCode": "140624",
    "province": "山西省",
    "city": "朔州市",
    "district": "怀仁县",
    "detail": "山西省怀仁县"
  },
  {
    "id": "303",
    "areaCode": "140700",
    "province": "山西省",
    "city": "晋中市",
    "district": null,
    "detail": "山西省晋中市"
  },
  {
    "id": "304",
    "areaCode": "140701",
    "province": "山西省",
    "city": "晋中市",
    "district": "市辖区",
    "detail": "山西省晋中市市辖区"
  },
  {
    "id": "305",
    "areaCode": "140702",
    "province": "山西省",
    "city": "晋中市",
    "district": "榆次区",
    "detail": "山西省晋中市榆次区"
  },
  {
    "id": "306",
    "areaCode": "140721",
    "province": "山西省",
    "city": "晋中市",
    "district": "榆社县",
    "detail": "山西省榆社县"
  },
  {
    "id": "307",
    "areaCode": "140722",
    "province": "山西省",
    "city": "晋中市",
    "district": "左权县",
    "detail": "山西省左权县"
  },
  {
    "id": "308",
    "areaCode": "140723",
    "province": "山西省",
    "city": "晋中市",
    "district": "和顺县",
    "detail": "山西省和顺县"
  },
  {
    "id": "309",
    "areaCode": "140724",
    "province": "山西省",
    "city": "晋中市",
    "district": "昔阳县",
    "detail": "山西省昔阳县"
  },
  {
    "id": "310",
    "areaCode": "140725",
    "province": "山西省",
    "city": "晋中市",
    "district": "寿阳县",
    "detail": "山西省寿阳县"
  },
  {
    "id": "311",
    "areaCode": "140726",
    "province": "山西省",
    "city": "晋中市",
    "district": "太谷县",
    "detail": "山西省太谷县"
  },
  {
    "id": "312",
    "areaCode": "140727",
    "province": "山西省",
    "city": "晋中市",
    "district": "祁 县",
    "detail": "山西省祁 县"
  },
  {
    "id": "313",
    "areaCode": "140728",
    "province": "山西省",
    "city": "晋中市",
    "district": "平遥县",
    "detail": "山西省平遥县"
  },
  {
    "id": "314",
    "areaCode": "140729",
    "province": "山西省",
    "city": "晋中市",
    "district": "灵石县",
    "detail": "山西省灵石县"
  },
  {
    "id": "315",
    "areaCode": "140781",
    "province": "山西省",
    "city": "晋中市",
    "district": "介休市",
    "detail": "山西省介休市"
  },
  {
    "id": "316",
    "areaCode": "140800",
    "province": "山西省",
    "city": "运城市",
    "district": null,
    "detail": "山西省运城市"
  },
  {
    "id": "317",
    "areaCode": "140801",
    "province": "山西省",
    "city": "运城市",
    "district": "市辖区",
    "detail": "山西省运城市市辖区"
  },
  {
    "id": "318",
    "areaCode": "140802",
    "province": "山西省",
    "city": "运城市",
    "district": "盐湖区",
    "detail": "山西省运城市盐湖区"
  },
  {
    "id": "319",
    "areaCode": "140821",
    "province": "山西省",
    "city": "运城市",
    "district": "临猗县",
    "detail": "山西省临猗县"
  },
  {
    "id": "320",
    "areaCode": "140822",
    "province": "山西省",
    "city": "运城市",
    "district": "万荣县",
    "detail": "山西省万荣县"
  },
  {
    "id": "321",
    "areaCode": "140823",
    "province": "山西省",
    "city": "运城市",
    "district": "闻喜县",
    "detail": "山西省闻喜县"
  },
  {
    "id": "322",
    "areaCode": "140824",
    "province": "山西省",
    "city": "运城市",
    "district": "稷山县",
    "detail": "山西省稷山县"
  },
  {
    "id": "323",
    "areaCode": "140825",
    "province": "山西省",
    "city": "运城市",
    "district": "新绛县",
    "detail": "山西省新绛县"
  },
  {
    "id": "324",
    "areaCode": "140826",
    "province": "山西省",
    "city": "运城市",
    "district": "绛县",
    "detail": "山西省绛县"
  },
  {
    "id": "325",
    "areaCode": "140827",
    "province": "山西省",
    "city": "运城市",
    "district": "垣曲县",
    "detail": "山西省垣曲县"
  },
  {
    "id": "326",
    "areaCode": "140828",
    "province": "山西省",
    "city": "运城市",
    "district": "夏县",
    "detail": "山西省夏县"
  },
  {
    "id": "327",
    "areaCode": "140829",
    "province": "山西省",
    "city": "运城市",
    "district": "平陆县",
    "detail": "山西省平陆县"
  },
  {
    "id": "328",
    "areaCode": "140830",
    "province": "山西省",
    "city": "运城市",
    "district": "芮城县",
    "detail": "山西省芮城县"
  },
  {
    "id": "329",
    "areaCode": "140881",
    "province": "山西省",
    "city": "运城市",
    "district": "永济市",
    "detail": "山西省永济市"
  },
  {
    "id": "330",
    "areaCode": "140882",
    "province": "山西省",
    "city": "运城市",
    "district": "河津市",
    "detail": "山西省河津市"
  },
  {
    "id": "331",
    "areaCode": "140900",
    "province": "山西省",
    "city": "忻州市",
    "district": null,
    "detail": "山西省忻州市"
  },
  {
    "id": "332",
    "areaCode": "140901",
    "province": "山西省",
    "city": "忻州市",
    "district": "市辖区",
    "detail": "山西省忻州市市辖区"
  },
  {
    "id": "333",
    "areaCode": "140902",
    "province": "山西省",
    "city": "忻州市",
    "district": "忻府区",
    "detail": "山西省忻州市忻府区"
  },
  {
    "id": "334",
    "areaCode": "140921",
    "province": "山西省",
    "city": "忻州市",
    "district": "定襄县",
    "detail": "山西省定襄县"
  },
  {
    "id": "335",
    "areaCode": "140922",
    "province": "山西省",
    "city": "忻州市",
    "district": "五台县",
    "detail": "山西省五台县"
  },
  {
    "id": "336",
    "areaCode": "140923",
    "province": "山西省",
    "city": "忻州市",
    "district": "代县",
    "detail": "山西省代县"
  },
  {
    "id": "337",
    "areaCode": "140924",
    "province": "山西省",
    "city": "忻州市",
    "district": "繁峙县",
    "detail": "山西省繁峙县"
  },
  {
    "id": "338",
    "areaCode": "140925",
    "province": "山西省",
    "city": "忻州市",
    "district": "宁武县",
    "detail": "山西省宁武县"
  },
  {
    "id": "339",
    "areaCode": "140926",
    "province": "山西省",
    "city": "忻州市",
    "district": "静乐县",
    "detail": "山西省静乐县"
  },
  {
    "id": "340",
    "areaCode": "140927",
    "province": "山西省",
    "city": "忻州市",
    "district": "神池县",
    "detail": "山西省神池县"
  },
  {
    "id": "341",
    "areaCode": "140928",
    "province": "山西省",
    "city": "忻州市",
    "district": "五寨县",
    "detail": "山西省五寨县"
  },
  {
    "id": "342",
    "areaCode": "140929",
    "province": "山西省",
    "city": "忻州市",
    "district": "岢岚县",
    "detail": "山西省岢岚县"
  },
  {
    "id": "343",
    "areaCode": "140930",
    "province": "山西省",
    "city": "忻州市",
    "district": "河曲县",
    "detail": "山西省河曲县"
  },
  {
    "id": "344",
    "areaCode": "140931",
    "province": "山西省",
    "city": "忻州市",
    "district": "保德县",
    "detail": "山西省保德县"
  },
  {
    "id": "345",
    "areaCode": "140932",
    "province": "山西省",
    "city": "忻州市",
    "district": "偏关县",
    "detail": "山西省偏关县"
  },
  {
    "id": "346",
    "areaCode": "140981",
    "province": "山西省",
    "city": "忻州市",
    "district": "原平市",
    "detail": "山西省原平市"
  },
  {
    "id": "347",
    "areaCode": "141000",
    "province": "山西省",
    "city": "临汾市",
    "district": null,
    "detail": "山西省临汾市"
  },
  {
    "id": "348",
    "areaCode": "141001",
    "province": "山西省",
    "city": "临汾市",
    "district": "市辖区",
    "detail": "山西省临汾市市辖区"
  },
  {
    "id": "349",
    "areaCode": "141002",
    "province": "山西省",
    "city": "临汾市",
    "district": "尧都区",
    "detail": "山西省临汾市尧都区"
  },
  {
    "id": "350",
    "areaCode": "141021",
    "province": "山西省",
    "city": "临汾市",
    "district": "曲沃县",
    "detail": "山西省曲沃县"
  },
  {
    "id": "351",
    "areaCode": "141022",
    "province": "山西省",
    "city": "临汾市",
    "district": "翼城县",
    "detail": "山西省翼城县"
  },
  {
    "id": "352",
    "areaCode": "141023",
    "province": "山西省",
    "city": "临汾市",
    "district": "襄汾县",
    "detail": "山西省襄汾县"
  },
  {
    "id": "353",
    "areaCode": "141024",
    "province": "山西省",
    "city": "临汾市",
    "district": "洪洞县",
    "detail": "山西省洪洞县"
  },
  {
    "id": "354",
    "areaCode": "141025",
    "province": "山西省",
    "city": "临汾市",
    "district": "古 县",
    "detail": "山西省古 县"
  },
  {
    "id": "355",
    "areaCode": "141026",
    "province": "山西省",
    "city": "临汾市",
    "district": "安泽县",
    "detail": "山西省安泽县"
  },
  {
    "id": "356",
    "areaCode": "141027",
    "province": "山西省",
    "city": "临汾市",
    "district": "浮山县",
    "detail": "山西省浮山县"
  },
  {
    "id": "357",
    "areaCode": "141028",
    "province": "山西省",
    "city": "临汾市",
    "district": "吉 县",
    "detail": "山西省吉 县"
  },
  {
    "id": "358",
    "areaCode": "141029",
    "province": "山西省",
    "city": "临汾市",
    "district": "乡宁县",
    "detail": "山西省乡宁县"
  },
  {
    "id": "359",
    "areaCode": "141030",
    "province": "山西省",
    "city": "临汾市",
    "district": "大宁县",
    "detail": "山西省大宁县"
  },
  {
    "id": "360",
    "areaCode": "141031",
    "province": "山西省",
    "city": "临汾市",
    "district": "隰 县",
    "detail": "山西省隰 县"
  },
  {
    "id": "361",
    "areaCode": "141032",
    "province": "山西省",
    "city": "临汾市",
    "district": "永和县",
    "detail": "山西省永和县"
  },
  {
    "id": "362",
    "areaCode": "141033",
    "province": "山西省",
    "city": "临汾市",
    "district": "蒲 县",
    "detail": "山西省蒲 县"
  },
  {
    "id": "363",
    "areaCode": "141034",
    "province": "山西省",
    "city": "临汾市",
    "district": "汾西县",
    "detail": "山西省汾西县"
  },
  {
    "id": "364",
    "areaCode": "141081",
    "province": "山西省",
    "city": "临汾市",
    "district": "侯马市",
    "detail": "山西省侯马市"
  },
  {
    "id": "365",
    "areaCode": "141082",
    "province": "山西省",
    "city": "临汾市",
    "district": "霍州市",
    "detail": "山西省霍州市"
  },
  {
    "id": "366",
    "areaCode": "141100",
    "province": "山西省",
    "city": "吕梁市",
    "district": null,
    "detail": "山西省吕梁市"
  },
  {
    "id": "367",
    "areaCode": "141101",
    "province": "山西省",
    "city": "吕梁市",
    "district": "市辖区",
    "detail": "山西省吕梁市市辖区"
  },
  {
    "id": "368",
    "areaCode": "141102",
    "province": "山西省",
    "city": "吕梁市",
    "district": "离石区",
    "detail": "山西省吕梁市离石区"
  },
  {
    "id": "369",
    "areaCode": "141121",
    "province": "山西省",
    "city": "吕梁市",
    "district": "文水县",
    "detail": "山西省文水县"
  },
  {
    "id": "370",
    "areaCode": "141122",
    "province": "山西省",
    "city": "吕梁市",
    "district": "交城县",
    "detail": "山西省交城县"
  },
  {
    "id": "371",
    "areaCode": "141123",
    "province": "山西省",
    "city": "吕梁市",
    "district": "兴 县",
    "detail": "山西省兴 县"
  },
  {
    "id": "372",
    "areaCode": "141124",
    "province": "山西省",
    "city": "吕梁市",
    "district": "临 县",
    "detail": "山西省临 县"
  },
  {
    "id": "373",
    "areaCode": "141125",
    "province": "山西省",
    "city": "吕梁市",
    "district": "柳林县",
    "detail": "山西省柳林县"
  },
  {
    "id": "374",
    "areaCode": "141126",
    "province": "山西省",
    "city": "吕梁市",
    "district": "石楼县",
    "detail": "山西省石楼县"
  },
  {
    "id": "375",
    "areaCode": "141127",
    "province": "山西省",
    "city": "吕梁市",
    "district": "岚 县",
    "detail": "山西省岚 县"
  },
  {
    "id": "376",
    "areaCode": "141128",
    "province": "山西省",
    "city": "吕梁市",
    "district": "方山县",
    "detail": "山西省方山县"
  },
  {
    "id": "377",
    "areaCode": "141129",
    "province": "山西省",
    "city": "吕梁市",
    "district": "中阳县",
    "detail": "山西省中阳县"
  },
  {
    "id": "378",
    "areaCode": "141130",
    "province": "山西省",
    "city": "吕梁市",
    "district": "交口县",
    "detail": "山西省交口县"
  },
  {
    "id": "379",
    "areaCode": "141181",
    "province": "山西省",
    "city": "吕梁市",
    "district": "孝义市",
    "detail": "山西省孝义市"
  },
  {
    "id": "380",
    "areaCode": "141182",
    "province": "山西省",
    "city": "吕梁市",
    "district": "汾阳市",
    "detail": "山西省汾阳市"
  },
  {
    "id": "381",
    "areaCode": "142200",
    "province": "山西省",
    "city": "忻州市",
    "district": "忻州地区",
    "detail": "山西省忻州地区 "
  },
  {
    "id": "382",
    "areaCode": "142201",
    "province": "山西省",
    "city": "忻州市",
    "district": "忻州市",
    "detail": "山西省 忻州市 "
  },
  {
    "id": "383",
    "areaCode": "142202",
    "province": "山西省",
    "city": "忻州市",
    "district": "原平市 ",
    "detail": "山西省 原平市 "
  },
  {
    "id": "384",
    "areaCode": "142222",
    "province": "山西省",
    "city": "忻州市",
    "district": "定襄县",
    "detail": "山西省 定襄县 "
  },
  {
    "id": "385",
    "areaCode": "142223",
    "province": "山西省",
    "city": "忻州市",
    "district": "五台县",
    "detail": "山西省 五台县 "
  },
  {
    "id": "386",
    "areaCode": "142225",
    "province": "山西省",
    "city": "忻州市",
    "district": "代 县",
    "detail": "山西省 代 县 "
  },
  {
    "id": "387",
    "areaCode": "142226",
    "province": "山西省",
    "city": "忻州市",
    "district": " 繁峙县",
    "detail": "山西省 繁峙县 "
  },
  {
    "id": "388",
    "areaCode": "142227",
    "province": "山西省",
    "city": "忻州市",
    "district": "宁武县",
    "detail": "山西省 宁武县 "
  },
  {
    "id": "389",
    "areaCode": "142228",
    "province": "山西省",
    "city": "忻州市",
    "district": "静乐县",
    "detail": "山西省 静乐县 "
  },
  {
    "id": "390",
    "areaCode": "142229",
    "province": "山西省",
    "city": "忻州市",
    "district": " 神池县",
    "detail": "山西省 神池县 "
  },
  {
    "id": "391",
    "areaCode": "142230",
    "province": "山西省",
    "city": "忻州市",
    "district": "五寨县",
    "detail": "山西省 五寨县 "
  },
  {
    "id": "392",
    "areaCode": "142231",
    "province": "山西省",
    "city": "忻州市",
    "district": "岢岚县 ",
    "detail": "山西省 岢岚县 "
  },
  {
    "id": "393",
    "areaCode": "142232",
    "province": "山西省",
    "city": "忻州市",
    "district": "河曲县",
    "detail": "山西省 河曲县 "
  },
  {
    "id": "394",
    "areaCode": "142233",
    "province": "山西省",
    "city": "忻州市",
    "district": "保德县 ",
    "detail": "山西省 保德县 "
  },
  {
    "id": "395",
    "areaCode": "142234",
    "province": "山西省",
    "city": "忻州市",
    "district": "偏关县",
    "detail": "山西省 偏关县 "
  },
  {
    "id": "396",
    "areaCode": "142301",
    "province": "山西省",
    "city": "吕梁市",
    "district": "孝义市",
    "detail": "山西省吕梁地区孝义市"
  },
  {
    "id": "397",
    "areaCode": "142302",
    "province": "山西省",
    "city": "吕梁市",
    "district": "离石市",
    "detail": "山西省吕梁地区离石市"
  },
  {
    "id": "398",
    "areaCode": "142303",
    "province": "山西省",
    "city": "吕梁市",
    "district": "汾阳市",
    "detail": "山西省吕梁地区汾阳市"
  },
  {
    "id": "399",
    "areaCode": "142322",
    "province": "山西省",
    "city": "吕梁市",
    "district": "文水县",
    "detail": "山西省吕梁地区文水县"
  },
  {
    "id": "400",
    "areaCode": "142323",
    "province": "山西省",
    "city": "吕梁市",
    "district": "交城县",
    "detail": "山西省吕梁地区交城县"
  },
  {
    "id": "401",
    "areaCode": "142325",
    "province": "山西省",
    "city": "吕梁市",
    "district": "兴县",
    "detail": "山西省吕梁地区兴县"
  },
  {
    "id": "402",
    "areaCode": "142326",
    "province": "山西省",
    "city": "吕梁市",
    "district": "临县",
    "detail": "山西省吕梁地区临县"
  },
  {
    "id": "403",
    "areaCode": "142327",
    "province": "山西省",
    "city": "吕梁市",
    "district": "柳林县",
    "detail": "山西省吕梁地区柳林县"
  },
  {
    "id": "404",
    "areaCode": "142328",
    "province": "山西省",
    "city": "吕梁市",
    "district": "石楼县",
    "detail": "山西省吕梁地区石楼县"
  },
  {
    "id": "405",
    "areaCode": "142329",
    "province": "山西省",
    "city": "吕梁市",
    "district": "岚县",
    "detail": "山西省吕梁地区岚县"
  },
  {
    "id": "406",
    "areaCode": "142330",
    "province": "山西省",
    "city": "吕梁市",
    "district": "方山县",
    "detail": "山西省吕梁地区方山县"
  },
  {
    "id": "407",
    "areaCode": "142332",
    "province": "山西省",
    "city": "吕梁市",
    "district": "中阳县",
    "detail": "山西省吕梁地区中阳县"
  }
]
